BEIDOU-3 M3-C21
1 43208U 18018B   23123.77857963  .00000048  00000+0  00000+0 0  9998
2 43208  55.7164 101.0619 0010377 303.3065  56.5768  1.86231537 35509
